NORAD_CAT_ID,OBJECT_NAME,OBJECT_TYPE,EPOCH,MEAN_MOTION,ECCENTRICITY,INCLINATION,RA_OF_ASC_NODE,ARG_OF_PERICENTER,MEAN_ANOMALY,BSTAR,MEAN_MOTION_DOT,MEAN_MOTION_DDOT,TLE_LINE0,TLE_LINE1,TLE_LINE2,SEMIMAJOR_AXIS,PERIOD,APOGEE,PERIGEE,DECAYED
53867.0,STARLINK-4793,PAYLOAD,2023-10-04 08:29:41,15.08837898,0.0001654,53.2165,297.5875,89.7637,270.3544,0.00011651,1.567e-05,0.0,0 STARLINK-4793,1 53867U 22114BB  23277.35395265  .00001567  00000-0  11651-3 0  9994,2 53867  53.2165 297.5875 0001654  89.7637 270.3544 15.08837898 58759,6917.887,95.438,540.896,538.608,0.0
53867.0,STARLINK-4793,PAYLOAD,2023-10-04 11:40:27,15.08840243,0.0001624,53.2166,296.9929,92.5055,267.6123,0.00013425,1.849e-05,0.0,0 STARLINK-4793,1 53867U 22114BB  23277.48643081  .00001849  00000-0  13425-3 0  9994,2 53867  53.2166 296.9929 0001624  92.5055 267.6123 15.08840243 59319,6917.88,95.438,540.868,538.621,0.0
53867.0,STARLINK-4793,PAYLOAD,2023-10-05 09:55:51,15.08843531,0.0001604,53.2168,292.8301,87.5228,272.5948,-4.0857e-06,-3.53e-06,0.0,0 STARLINK-4793,1 53867U 22114BB  23278.41379556 -.00000353  00000-0 -40857-5 0  9993,2 53867  53.2168 292.8301 0001604  87.5228 272.5948 15.08843531 58912,6917.87,95.437,540.844,538.625,0.0
53867.0,STARLINK-4793,PAYLOAD,2023-10-05 11:31:14,15.08844816,0.0001598,53.2168,292.5323,85.9385,274.1789,5.7331e-06,-1.97e-06,0.0,0 STARLINK-4793,1 53867U 22114BB  23278.48003435 -.00000197  00000-0  57331-5 0  9990,2 53867  53.2168 292.5323 0001598  85.9385 274.1789 15.08844816 59460,6917.866,95.437,540.836,538.625,0.0
53867.0,STARLINK-4793,PAYLOAD,2023-10-05 17:52:47,15.08839816,0.0001556,53.2164,291.3423,85.5353,274.5817,-6.0087e-05,-1.244e-05,0.0,0 STARLINK-4793,1 53867U 22114BB  23278.74499932 -.00001244  00000-0 -60087-4 0  9996,2 53867  53.2164 291.3423 0001556  85.5353 274.5817 15.08839816 59504,6917.881,95.438,540.822,538.67,0.0
53867.0,STARLINK-4793,PAYLOAD,2023-10-06 05:00:30,15.08835814,0.0001375,53.2163,289.2605,92.0191,268.0959,-9.7358e-07,-3.03e-06,0.0,0 STARLINK-4793,1 53867U 22114BB  23279.20868251 -.00000303  00000-0 -97358-6 0  9990,2 53867  53.2163 289.2605 0001375  92.0191 268.0959 15.08835814 59030,6917.893,95.438,540.709,538.807,0.0
53867.0,STARLINK-4793,PAYLOAD,2023-10-06 09:46:39,15.08842145,0.0001401,53.2177,288.3685,91.2914,268.8238,4.3607e-05,4.06e-06,0.0,0 STARLINK-4793,1 53867U 22114BB  23279.40739709  .00000406  00000-0  43607-4 0  9995,2 53867  53.2177 288.3685 0001401  91.2914 268.8238 15.08842145 59063,6917.874,95.437,540.708,538.77,0.0
53867.0,STARLINK-4793,PAYLOAD,2023-10-07 08:02:03,15.08843789,0.0001657,53.2172,284.2063,88.6071,271.5111,4.1274e-05,3.69e-06,0.0,0 STARLINK-4793,1 53867U 22114BB  23280.33475810  .00000369  00000-0  41274-4 0  9995,2 53867  53.2172 284.2063 0001657  88.6071 271.5111 15.08843789 59741,6917.869,95.437,540.88,538.588,0.0
53867.0,STARLINK-4793,PAYLOAD,2023-10-07 23:55:54,15.08835716,0.0001416,53.2171,281.2332,93.0974,267.0181,8.2281e-05,1.022e-05,0.0,0 STARLINK-4793,1 53867U 22114BB  23280.99716136  .00001022  00000-0  82281-4 0  9996,2 53867  53.2171 281.2332 0001416  93.0974 267.0181 15.08835716 59301,6917.893,95.438,540.738,538.779,0.0
53867.0,STARLINK-4793,PAYLOAD,2023-10-08 09:28:13,15.08844756,0.0001622,53.2172,279.4494,95.4263,264.6914,4.8652e-05,4.86e-06,0.0,0 STARLINK-4793,1 53867U 22114BB  23281.39459753  .00000486  00000-0  48652-4 0  9997,2 53867  53.2172 279.4494 0001622  95.4263 264.6914 15.08844756 59903,6917.866,95.437,540.853,538.609,0.0
53867.0,STARLINK-4793,PAYLOAD,2023-10-09 09:19:00,15.08836552,0.0001544,53.2167,274.9847,102.2449,257.8716,0.00022165,3.241e-05,0.0,0 STARLINK-4793,1 53867U 22114BB  23282.38819582  .00003241  00000-0  22165-3 0  9999,2 53867  53.2167 274.9847 0001544 102.2449 257.8716 15.08836552 60052,6917.891,95.438,540.824,538.688,0.0
53867.0,STARLINK-4793,PAYLOAD,2023-10-10 09:09:47,15.08844337,0.0001673,53.2162,270.5247,101.2688,258.8492,1.9114e-05,1.6e-07,0.0,0 STARLINK-4793,1 53867U 22114BB  23283.38179630  .00000016  00000-0  19114-4 0  9991,2 53867  53.2162 270.5247 0001673 101.2688 258.8492 15.08844337 60209,6917.867,95.437,540.889,538.575,0.0
53867.0,STARLINK-4793,PAYLOAD,2023-10-11 02:39:02,15.08837011,0.0001739,53.2167,267.2515,111.2472,248.8705,-4.1989e-05,-9.56e-06,0.0,0 STARLINK-4793,1 53867U 22114BB  23284.11044404 -.00000956  00000-0 -41989-4 0  9993,2 53867  53.2167 267.2515 0001739 111.2472 248.8705 15.08837011 59777,6917.89,95.438,540.958,538.552,0.0
53867.0,STARLINK-4793,PAYLOAD,2023-10-11 09:00:34,15.08842361,0.0001472,53.2174,266.0656,97.6046,262.5114,-4.1435e-05,-9.47e-06,0.0,0 STARLINK-4793,1 53867U 22114BB  23284.37540218 -.00000947  00000-0 -41435-4 0  9991,2 53867  53.2174 266.0656 0001472  97.6046 262.5114 15.08842361 60353,6917.873,95.437,540.756,538.72,0.0
53867.0,STARLINK-4793,PAYLOAD,2023-10-12 05:40:35,15.08841525,0.0001399,53.2171,262.202,96.1737,263.9415,9.1235e-05,1.164e-05,0.0,0 STARLINK-4793,1 53867U 22114BB  23285.23652374  .00001164  00000-0  91235-4 0  9997,2 53867  53.2171 262.2020 0001399  96.1737 263.9415 15.08841525 59945,6917.876,95.437,540.709,538.773,0.0
53867.0,STARLINK-4793,PAYLOAD,2023-10-12 08:51:21,15.08844964,0.0001493,53.2171,261.6065,99.1695,260.9466,0.00012235,1.66e-05,0.0,0 STARLINK-4793,1 53867U 22114BB  23285.36900241  .00001660  00000-0  12235-3 0  9993,2 53867  53.2171 261.6065 0001493  99.1695 260.9466 15.08844964 60505,6917.865,95.437,540.763,538.697,0.0
53867.0,STARLINK-4793,PAYLOAD,2023-10-12 15:12:54,15.08843418,0.0001252,53.2166,260.4151,92.7278,267.3857,5.8461e-05,6.43e-06,0.0,0 STARLINK-4793,1 53867U 22114BB  23285.63396306  .00000643  00000-0  58461-4 0  9996,2 53867  53.2166 260.4151 0001252  92.7278 267.3857 15.08843418 60543,6917.87,95.437,540.601,538.869,0.0
53867.0,STARLINK-4793,PAYLOAD,2023-10-13 05:31:23,15.08838087,0.000143,53.2174,257.7427,103.6681,256.4471,0.00010562,1.393e-05,0.0,0 STARLINK-4793,1 53867U 22114BB  23286.23012892  .00001393  00000-0  10562-3 0  9990,2 53867  53.2174 257.7427 0001430 103.6681 256.4471 15.08838087 60092,6917.886,95.438,540.74,538.762,0.0
53867.0,STARLINK-4793,PAYLOAD,2023-10-13 21:25:14,15.08837574,0.0001151,53.2176,254.7683,89.5633,270.5491,0.00014595,2.036e-05,0.0,0 STARLINK-4793,1 53867U 22114BB  23286.89252850  .00002036  00000-0  14595-3 0  9997,2 53867  53.2176 254.7683 0001151  89.5633 270.5491 15.08837574 60734,6917.888,95.438,540.549,538.957,0.0
53867.0,STARLINK-4793,PAYLOAD,2023-10-14 06:57:32,15.08849208,0.0001441,53.2177,252.983,89.2016,270.9141,0.00014025,1.945e-05,0.0,0 STARLINK-4793,1 53867U 22114BB  23287.28996174  .00001945  00000-0  14025-3 0  9991,2 53867  53.2177 252.9830 0001441  89.2016 270.9141 15.08849208 60253,6917.852,95.437,540.714,538.72,0.0
53867.0,STARLINK-4793,PAYLOAD,2023-10-14 21:16:02,15.08826986,0.0001724,53.2165,250.3086,95.0088,265.1101,-1.0666e-05,-4.58e-06,0.0,0 STARLINK-4793,1 53867U 22114BB  23287.88614139 -.00000458  00000-0 -10666-4 0  9993,2 53867  53.2165 250.3086 0001724  95.0088 265.1101 15.08826986 60343,6917.92,95.438,540.978,538.593,0.0
53867.0,STARLINK-4793,PAYLOAD,2023-10-15 06:48:21,15.0883282,0.0001632,53.2164,248.5221,93.1504,266.9675,-5.8503e-05,-1.219e-05,0.0,0 STARLINK-4793,1 53867U 22114BB  23288.28358181 -.00001219  00000-0 -58503-4 0  9998,2 53867  53.2164 248.5221 0001632  93.1504 266.9675 15.08832820 60947,6917.902,95.438,540.896,538.638,0.0
53867.0,STARLINK-4793,PAYLOAD,2023-10-15 14:45:16,15.0883715,0.0001689,53.2171,247.0365,90.5032,269.6153,-8.9627e-06,-4.31e-06,0.0,0 STARLINK-4793,1 53867U 22114BB  23288.61477924 -.00000431  00000-0 -89627-5 0  9999,2 53867  53.2171 247.0365 0001689  90.5032 269.6153 15.08837150 60455,6917.889,95.438,540.923,538.586,0.0
53867.0,STARLINK-4793,PAYLOAD,2023-10-16 03:28:20,15.08851206,0.0001387,53.2154,244.6552,92.9385,267.1765,0.00010376,1.364e-05,0.0,0 STARLINK-4793,1 53867U 22114BB  23289.14468691  .00001364  00000-0  10376-3 0  9996,2 53867  53.2154 244.6552 0001387  92.9385 267.1765 15.08851206 60538,6917.846,95.437,540.671,538.752,0.0
53867.0,STARLINK-4793,PAYLOAD,2023-10-17 06:29:54,15.08843811,0.0001839,53.2178,239.5985,113.2661,246.8524,0.0001673,2.376e-05,0.0,0 STARLINK-4793,1 53867U 22114BB  23290.27077034  .00002376  00000-0  16730-3 0  9993,2 53867  53.2178 239.5985 0001839 113.2661 246.8524 15.08843811 60702,6917.869,95.437,541.006,538.462,0.0
53867.0,STARLINK-4793,PAYLOAD,2023-10-18 03:09:55,15.08845581,0.0001355,53.2185,235.7332,101.3299,258.7846,4.339e-05,4.03e-06,0.0,0 STARLINK-4793,1 53867U 22114BB  23291.13189146  .00000403  00000-0  43390-4 0  9999,2 53867  53.2185 235.7332 0001355 101.3299 258.7846 15.08845581 60831,6917.863,95.437,540.666,538.791,0.0
53867.0,STARLINK-4793,PAYLOAD,2023-10-18 06:20:41,15.08852833,0.0001481,53.2176,235.1375,104.3026,255.813,1.0967e-05,-1.13e-06,0.0,0 STARLINK-4793,1 53867U 22114BB  23291.26436763 -.00000113  00000-0  10967-4 0  9996,2 53867  53.2176 235.1375 0001481 104.3026 255.8130 15.08852833 61397,6917.841,95.437,540.731,538.682,0.0
53867.0,STARLINK-4793,PAYLOAD,2023-10-19 03:00:42,15.08836971,0.0001177,53.2165,231.2764,98.5092,261.6034,0.00013054,1.79e-05,0.0,0 STARLINK-4793,1 53867U 22114BB  23292.12549199  .00001790  00000-0  13054-3 0  9990,2 53867  53.2165 231.2764 0001177  98.5092 261.6034 15.08836971 60980,6917.89,95.438,540.569,538.94,0.0
53867.0,STARLINK-4793,PAYLOAD,2023-10-19 06:11:27,15.08849536,0.0001316,53.2169,230.6794,91.0838,269.0305,0.00025733,3.811e-05,0.0,0 STARLINK-4793,1 53867U 22114BB  23292.25796284  .00003811  00000-0  25733-3 0  9996,2 53867  53.2169 230.6794 0001316  91.0838 269.0305 15.08849536 61009,6917.851,95.437,540.627,538.806,0.0
53867.0,STARLINK-4793,PAYLOAD,2023-10-19 20:29:57,15.08840764,0.0001132,53.2169,228.0026,94.1241,265.9881,1.7519e-05,-9e-08,0.0,0 STARLINK-4793,1 53867U 22114BB  23292.85413420 -.00000009  00000-0  17519-4 0  9991,2 53867  53.2169 228.0026 0001132  94.1241 265.9881 15.08840764 61093,6917.878,95.438,540.526,538.96,0.0
